{"type": "FeatureCollection", "features": [ {"type": "Feature", "properties": {"norad_id": 31091, "name": "FENGYUN 1C DEB", "group": "fengyun-1c-debris", "lat": 49.888735736665396, "lon": -56.93724717251299, "alt_km": 926.4861922051632, "timestamp": "2025-12-02T10:50:47.554571+00:00", "meta": {"OBJECT_NAME": "FENGYUN 1C DEB", "OBJECT_ID": "1999-025BGM", "EPOCH": "2025-12-01T16:52:34.401216", "MEAN_MOTION": 13.54120325, "ECCENTRICITY": 0.0291101, "INCLINATION": 99.2236, "RA_OF_ASC_NODE": 313.4843, "ARG_OF_PERICENTER": 356.9866, "MEAN_ANOMALY": 2.9511, "EPHEMERIS_TYPE": 0, "CLASSIFICATION_TYPE": "U", "NORAD_CAT_ID": 31091, "ELEMENT_SET_NO": 999, "REV_AT_EPOCH": 61490, "BSTAR": 0.001065, "MEAN_MOTION_DOT": 9.06e-06, "MEAN_MOTION_DDOT": 0}, "tle": {"line1": "1 31091U 99025BGM 25335.70317594  .00000906  00000+0  10650-2 0  9991", "line2": "2 31091  99.2236 313.4843 0291101 356.9866   2.9511 13.54120325614904"}}, "geometry": {"type": "Point", "coordinates": [-56.93724717251299, 49.888735736665396]}}, {"type": "Feature", "properties": {"norad_id": 31092, "name": "FENGYUN 1C DEB", "group": "fengyun-1c-debris", "lat": -25.648764556072305, "lon": 97.29225477148212, "alt_km": 1332.5600188535527, "timestamp": "2025-12-02T10:50:47.554582+00:00", "meta": {"OBJECT_NAME": "FENGYUN 1C DEB", "OBJECT_ID": "1999-025BGN", "EPOCH": "2025-11-15T07:00:52.552224", "MEAN_MOTION": 13.46401433, "ECCENTRICITY": 0.03278725, "INCLINATION": 99.7115, "RA_OF_ASC_NODE": 75.9227, "ARG_OF_PERICENTER": 204.4209, "MEAN_ANOMALY": 154.1084, "EPHEMERIS_TYPE": 0, "CLASSIFICATION_TYPE": "U", "NORAD_CAT_ID": 31092, "ELEMENT_SET_NO": 999, "REV_AT_EPOCH": 91512, "BSTAR": 0.0042000132, "MEAN_MOTION_DOT": 3.457e-05, "MEAN_MOTION_DDOT": 0}, "tle": {"line1": "1 31092U 99025BGN 25319.29227491  .00003457  00000+0  42000-2 0  9992", "line2": "2 31092  99.7115  75.9227 0327872 204.4209 154.1084 13.46401433915121"}}, "geometry": {"type": "Point", "coordinates": [97.29225477148212, -25.648764556072305]}}, {"type": "Feature", "properties": {"norad_id": 31093, "name": "FENGYUN 1C DEB", "group": "fengyun-1c-debris", "lat": -49.62488731716765, "lon": -173.3860827286921, "alt_km": 886.4691125840245, "timestamp": "2025-12-02T10:50:47.554592+00:00", "meta": {"OBJECT_NAME": "FENGYUN 1C DEB", "OBJECT_ID": "1999-025BGP", "EPOCH": "2025-12-02T00:39:11.152224", "MEAN_MOTION": 13.80613444, "ECCENTRICITY": 0.0208177, "INCLINATION": 98.5951, "RA_OF_ASC_NODE": 175.9819, "ARG_OF_PERICENTER": 252.3007, "MEAN_ANOMALY": 105.5326, "EPHEMERIS_TYPE": 0, "CLASSIFICATION_TYPE": "U", "NORAD_CAT_ID": 31093, "ELEMENT_SET_NO": 999, "REV_AT_EPOCH": 94359, "BSTAR": 0.00050561, "MEAN_MOTION_DOT": 5.85e-06, "MEAN_MOTION_DDOT": 0}, "tle": {"line1": "1 31093U 99025BGP 25336.02721241  .00000585  00000+0  50561-3 0  9996", "line2": "2 31093  98.5951 175.9819 0208177 252.3007 105.5326 13.80613444943595"}}, "geometry": {"type": "Point", "coordinates": [-173.3860827286921, -49.62488731716765]}}, {"type": "Feature", "properties": {"norad_id": 31094, "name": "FENGYUN 1C DEB", "group": "fengyun-1c-debris", "lat": -0.3959282150026024, "lon": -155.34149566006377, "alt_km": 870.011366942822, "timestamp": "2025-12-02T10:50:47.554602+00:00", "meta": {"OBJECT_NAME": "FENGYUN 1C DEB", "OBJECT_ID": "1999-025BGQ", "EPOCH": "2025-12-02T02:17:03.709248", "MEAN_MOTION": 14.01970488, "ECCENTRICITY": 0.0106375, "INCLINATION": 98.8573, "RA_OF_ASC_NODE": 204.2502, "ARG_OF_PERICENTER": 76.3806, "MEAN_ANOMALY": 284.918, "EPHEMERIS_TYPE": 0, "CLASSIFICATION_TYPE": "U", "NORAD_CAT_ID": 31094, "ELEMENT_SET_NO": 999, "REV_AT_EPOCH": 95470, "BSTAR": 0.0015746, "MEAN_MOTION_DOT": 2.48e-05, "MEAN_MOTION_DDOT": 0}, "tle": {"line1": "1 31094U 99025BGQ 25336.09518182  .00002480  00000+0  15746-2 0  9993", "line2": "2 31094  98.8573 204.2502 0106375  76.3806 284.9180 14.01970488954705"}}, "geometry": {"type": "Point", "coordinates": [-155.34149566006377, -0.3959282150026024]}}, {"type": "Feature", "properties": {"norad_id": 31095, "name": "FENGYUN 1C DEB", "group": "fengyun-1c-debris", "lat": 21.389385234161416, "lon": 117.5601930748731, "alt_km": 1602.490424264999, "timestamp": "2025-12-02T10:50:47.554612+00:00", "meta": {"OBJECT_NAME": "FENGYUN 1C DEB", "OBJECT_ID": "1999-025BGR", "EPOCH": "2025-12-01T03:29:02.954112", "MEAN_MOTION": 13.06659959, "ECCENTRICITY": 0.04997166, "INCLINATION": 98.5614, "RA_OF_ASC_NODE": 119.8961, "ARG_OF_PERICENTER": 219.6106, "MEAN_ANOMALY": 136.7486, "EPHEMERIS_TYPE": 0, "CLASSIFICATION_TYPE": "U", "NORAD_CAT_ID": 31095, "ELEMENT_SET_NO": 999, "REV_AT_EPOCH": 89296, "BSTAR": 0.00037473476, "MEAN_MOTION_DOT": 1.94e-06, "MEAN_MOTION_DDOT": 0}, "tle": {"line1": "1 31095U 99025BGR 25335.14517308  .00000194  00000+0  37473-3 0  9990", "line2": "2 31095  98.5614 119.8961 0499716 219.6106 136.7486 13.06659959892961"}}, "geometry": {"type": "Point", "coordinates": [117.5601930748731, 21.389385234161416]}}, {"type": "Feature", "properties": {"norad_id": 31097, "name": "FENGYUN 1C DEB", "group": "fengyun-1c-debris", "lat": -5.304513775957927, "lon": -82.07389269403545, "alt_km": 744.5569388342456, "timestamp": "2025-12-02T10:50:47.554621+00:00", "meta": {"OBJECT_NAME": "FENGYUN 1C DEB", "OBJECT_ID": "1999-025BGT", "EPOCH": "2025-12-01T07:41:11.971680", "MEAN_MOTION": 14.46625294, "ECCENTRICITY": 0.00143641, "INCLINATION": 98.8599, "RA_OF_ASC_NODE": 97.5731, "ARG_OF_PERICENTER": 303.8592, "MEAN_ANOMALY": 111.3458, "EPHEMERIS_TYPE": 0, "CLASSIFICATION_TYPE": "U", "NORAD_CAT_ID": 31097, "ELEMENT_SET_NO": 999, "REV_AT_EPOCH": 96873, "BSTAR": 0.0033518481, "MEAN_MOTION_DOT": 0.00012084, "MEAN_MOTION_DDOT": 0}, "tle": {"line1": "1 31097U 99025BGT 25335.32027745  .00012084  00000+0  33518-2 0  9999", "line2": "2 31097  98.8599  97.5731 0014364 303.8592 111.3458 14.46625294968739"}}, "geometry": {"type": "Point", "coordinates": [-82.07389269403545, -5.304513775957927]}}, {"type": "Feature", "properties": {"norad_id": 31098, "name": "FENGYUN 1C DEB", "group": "fengyun-1c-debris", "lat": -65.75082745521752, "lon": -106.44359632158059, "alt_km": 720.7673613318575, "timestamp": "2025-12-02T10:50:47.554631+00:00", "meta": {"OBJECT_NAME": "FENGYUN 1C DEB", "OBJECT_ID": "1999-025BGU", "EPOCH": "2025-12-01T20:28:11.822304", "MEAN_MOTION": 14.5106147, "ECCENTRICITY": 0.0013946, "INCLINATION": 98.8698, "RA_OF_ASC_NODE": 93.209, "ARG_OF_PERICENTER": 279.3117, "MEAN_ANOMALY": 80.6499, "EPHEMERIS_TYPE": 0, "CLASSIFICATION_TYPE": "U", "NORAD_CAT_ID": 31098, "ELEMENT_SET_NO": 999, "REV_AT_EPOCH": 96799, "BSTAR": 0.003572, "MEAN_MOTION_DOT": 0.00014142, "MEAN_MOTION_DDOT": 0}, "tle": {"line1": "1 31098U 99025BGU 25335.85291461  .00014142  00000+0  35720-2 0  9990", "line2": "2 31098  98.8698  93.2090 0013946 279.3117  80.6499 14.51061470967992"}}, "geometry": {"type": "Point", "coordinates": [-106.44359632158059, -65.75082745521752]}}, {"type": "Feature", "properties": {"norad_id": 31099, "name": "FENGYUN 1C DEB", "group": "fengyun-1c-debris", "lat": -38.16300185590525, "lon": 41.58733115496569, "alt_km": 807.261434001949, "timestamp": "2025-12-02T10:50:47.554641+00:00", "meta": {"OBJECT_NAME": "FENGYUN 1C DEB", "OBJECT_ID": "1999-025BGV", "EPOCH": "2025-12-01T15:36:09.260352", "MEAN_MOTION": 14.27891635, "ECCENTRICITY": 0.00630641, "INCLINATION": 98.9374, "RA_OF_ASC_NODE": 227.8712, "ARG_OF_PERICENTER": 313.9725, "MEAN_ANOMALY": 105.9469, "EPHEMERIS_TYPE": 0, "CLASSIFICATION_TYPE": "U", "NORAD_CAT_ID": 31099, "ELEMENT_SET_NO": 999, "REV_AT_EPOCH": 97313, "BSTAR": 0.00035336263, "MEAN_MOTION_DOT": 8.46e-06, "MEAN_MOTION_DDOT": 0}, "tle": {"line1": "1 31099U 99025BGV 25335.65010718  .00000846  00000+0  35336-3 0  9993", "line2": "2 31099  98.9374 227.8712 0063064 313.9725 105.9469 14.27891635973135"}}, "geometry": {"type": "Point", "coordinates": [41.58733115496569, -38.16300185590525]}}, {"type": "Feature", "properties": {"norad_id": 31146, "name": "FENGYUN 1C DEB", "group": "fengyun-1c-debris", "lat": 79.57823553805402, "lon": -153.09316219666673, "alt_km": 846.4005893708909, "timestamp": "2025-12-02T10:50:47.554651+00:00", "meta": {"OBJECT_NAME": "FENGYUN 1C DEB", "OBJECT_ID": "1999-025BGY", "EPOCH": "2025-11-30T18:04:03.562464", "MEAN_MOTION": 14.27661825, "ECCENTRICITY": 0.0212084, "INCLINATION": 99.04, "RA_OF_ASC_NODE": 265.0967, "ARG_OF_PERICENTER": 201.7318, "MEAN_ANOMALY": 157.4762, "EPHEMERIS_TYPE": 0, "CLASSIFICATION_TYPE": "U", "NORAD_CAT_ID": 31146, "ELEMENT_SET_NO": 999, "REV_AT_EPOCH": 96594, "BSTAR": 0.00039299299, "MEAN_MOTION_DOT": 1.178e-05, "MEAN_MOTION_DDOT": 0}, "tle": {"line1": "1 31146U 99025BGY 25334.75281901  .00001178  00000+0  39299-3 0  9991", "line2": "2 31146  99.0400 265.0967 0212084 201.7318 157.4762 14.27661825965940"}}, "geometry": {"type": "Point", "coordinates": [-153.09316219666673, 79.57823553805402]}}, {"type": "Feature", "properties": {"norad_id": 31148, "name": "FENGYUN 1C DEB", "group": "fengyun-1c-debris", "lat": 36.318168400629276, "lon": -144.99137426799993, "alt_km": 674.7842801100287, "timestamp": "2025-12-02T10:50:47.554661+00:00", "meta": {"OBJECT_NAME": "FENGYUN 1C DEB", "OBJECT_ID": "1999-025BHA", "EPOCH": "2025-12-01T09:43:14.615328", "MEAN_MOTION": 14.43252139, "ECCENTRICITY": 0.01364315, "INCLINATION": 98.8662, "RA_OF_ASC_NODE": 220.5077, "ARG_OF_PERICENTER": 84.1951, "MEAN_ANOMALY": 277.4773, "EPHEMERIS_TYPE": 0, "CLASSIFICATION_TYPE": "U", "NORAD_CAT_ID": 31148, "ELEMENT_SET_NO": 999, "REV_AT_EPOCH": 97367, "BSTAR": 0.00092433394, "MEAN_MOTION_DOT": 3.432e-05, "MEAN_MOTION_DDOT": 0}, "tle": {"line1": "1 31148U 99025BHA 25335.40503027  .00003432  00000+0  92433-3 0  9996", "line2": "2 31148  98.8662 220.5077 0136431  84.1951 277.4773 14.43252139973670"}}, "geometry": {"type": "Point", "coordinates": [-144.99137426799993, 36.318168400629276]}}]}